{
    "links": {
        "self": "http://www.neowsapp.com/rest/v1/neo/3710227?api_key=iIulBulltgU6a56xZRHN4H3l9WmuAYTsLGpBGhQ2"
    },
    "id": "3710227",
    "neo_reference_id": "3710227",
    "name": "(2015 CU13)",
    "designation": "2015 CU13",
    "nasa_jpl_url": "http://ssd.jpl.nasa.gov/sbdb.cgi?sstr=3710227",
    "absolute_magnitude_h": 23.6,
    "estimated_diameter": {
        "kilometers": {
            "estimated_diameter_min": 0.0506471459,
            "estimated_diameter_max": 0.1132504611
        },
        "meters": {
            "estimated_diameter_min": 50.6471458835,
            "estimated_diameter_max": 113.2504610618
        },
        "miles": {
            "estimated_diameter_min": 0.0314706677,
            "estimated_diameter_max": 0.0703705522
        },
        "feet": {
            "estimated_diameter_min": 166.1651821003,
            "estimated_diameter_max": 371.5566426699
        }
    },
    "is_potentially_hazardous_asteroid": false,
    "close_approach_data": [
        {
            "close_approach_date": "2015-02-15",
            "close_approach_date_full": "2015-Feb-15 13:58",
            "epoch_date_close_approach": 1424008680000,
            "relative_velocity": {
                "kilometers_per_second": "24.2999558775",
                "kilometers_per_hour": "87479.8411591649",
                "miles_per_hour": "54356.5713024822"
            },
            "miss_distance": {
                "astronomical": "0.0764062233",
                "lunar": "29.7220208637",
                "kilometers": "11430208.260424371",
                "miles": "7102402.0702674798"
            },
            "orbiting_body": "Earth"
        },
        {
            "close_approach_date": "2015-08-18",
            "close_approach_date_full": "2015-Aug-18 07:32",
            "epoch_date_close_approach": 1439883120000,
            "relative_velocity": {
                "kilometers_per_second": "23.5396077195",
                "kilometers_per_hour": "84742.5877900841",
                "miles_per_hour": "52655.7485076775"
            },
            "miss_distance": {
                "astronomical": "0.1449390256",
                "lunar": "56.3812809584",
                "kilometers": "21682569.509635472",
                "miles": "13472923.9455026336"
            },
            "orbiting_body": "Earth"
        }
    ],
    "orbital_data": {
        "orbit_id": "9",
        "orbit_determination_date": "2018-02-10 07:06:12",
        "first_observation_date": "2015-02-13",
        "last_observation_date": "2015-02-24",
        "data_arc_in_days": 11,
        "observations_used": 55,
        "orbit_uncertainty": "8",
        "minimum_orbit_intersection": ".0697084",
        "jupiter_tisserand_invariant": "5.293",
        "epoch_osculation": "2457069.5",
        "eccentricity": ".1046056493193529",
        "semi_major_axis": "1.113008789654951",
        "inclination": "47.81189822972541",
        "ascending_node_longitude": "325.0598337902114",
        "orbital_period": "428.8903926649501",
        "perihelion_distance": ".9965817825149482",
        "perihelion_argument": "247.158771490392",
        "aphelion_distance": "1.229435796794955",
        "perihelion_time": "2457136.798135502668",
        "mean_anomaly": "303.5116076384418",
        "mean_motion": ".8393752953128809",
        "equinox": "J2000",
        "orbit_class": {
            "orbit_class_type": "APO",
            "orbit_class_description": "Near-Earth asteroid orbits which cross the Earth’s orbit similar to that of 1862 Apollo",
            "orbit_class_range": "a (semi-major axis) > 1.0 AU; q (perihelion) < 1.017 AU"
        }
    },
    "is_sentry_object": false
}